IRIDIUM 155             
1 43573U 18061E   24150.63442705  .00000184  00000+0  58531-4 0  9999
2 43573  86.3985   9.5153 0001869  88.7140 271.4270 14.34217681306063
IRIDIUM 154             
1 43574U 18061F   24150.54562804  .00000324  00000+0  10871-3 0  9993
2 43574  86.3989   9.6490 0002354  84.1301 276.0163 14.34220532306108
IRIDIUM 163             
1 43575U 18061G   24150.66613596  .00000379  00000+0  12823-3 0  9991
2 43575  86.3986   9.5374 0002086  84.3455 275.7979 14.34220364306092
IRIDIUM 156             
1 43576U 18061H   24150.71053768  .00000316  00000+0  10579-3 0  9994
2 43576  86.3988   9.5253 0002091  90.9673 269.1762 14.34217646306098
IRIDIUM 164             
1 43577U 18061J   24150.69151192  .00000366  00000+0  12355-3 0  9991
2 43577  86.3987   9.5617 0002459  88.8308 271.3169 14.34220014306135
IRIDIUM 159             
1 43578U 18061K   24150.65979829  .00000319  00000+0  10673-3 0  9992
2 43578  86.3986   9.5277 0002454  84.1173 276.0302 14.34218034306096
IRIDIUM 180             
1 43922U 19002A   24150.93836468  .00000401  00000+0  13613-3 0  9992
2 43922  86.3944 306.2947 0002152  85.4687 274.6755 14.34216926281785
IRIDIUM 176             
1 43923U 19002B   24150.97050181  .00001487  00000+0  23189-3 0  9991
2 43923  86.6071 306.3041 0002377  87.2533 272.8956 14.72246180289165
IRIDIUM 168             
1 43924U 19002C   24150.86225757  .00000436  00000+0  14861-3 0  9993
2 43924  86.3945 306.3825 0002187  91.3588 268.7858 14.34218319281717
IRIDIUM 173             
1 43925U 19002D   24150.91934044  .00000184  00000+0  58553-4 0  9993
2 43925  86.3941 306.2783 0002203  89.6898 270.4550 14.34218083281705
IRIDIUM 169             
1 43926U 19002E   24151.52771531  .00000181  00000+0  52697-4 0  9992
2 43926  86.4218 337.6495 0000861  16.5749 343.5477 14.38587429282735
IRIDIUM 172             
1 43927U 19002F   24151.47114533  .00000119  00000+0  35417-4 0  9992
2 43927  86.3941 306.0530 0002262  90.0107 270.1348 14.34218337281792
IRIDIUM 175             
1 43928U 19002G   24150.89680149  .00001589  00000+0  24811-3 0  9996
2 43928  86.1493 280.5017 0001890  88.2974 271.8459 14.72240990289146
IRIDIUM 171             
1 43929U 19002H   24151.52188768  .00000491  00000+0  16826-3 0  9996
2 43929  86.3951 306.2555 0002272  95.3908 264.7547 14.34220195281797
IRIDIUM 170             
1 43930U 19002J   24150.90868884  .00000097  00000+0  11461-4 0  9996
2 43930  86.6073 306.3350 0002313  84.6842 275.4639 14.72247824289165
IRIDIUM 167             
1 43931U 19002K   24150.88762799  .00000118  00000+0  34990-4 0  9998
2 43931  86.3942 306.3130 0002114  93.8668 266.2769 14.34217556281702
IRIDIUM 181             
1 56726U 23068S   24150.94620465  .00000502  00000+0  14243-3 0  9996
2 56726  86.8646 359.1346 0002114  92.8581 267.2863 14.43584191 54506
IRIDIUM 177             
1 56727U 23068T   24151.51359476  .00002074  00000+0  26950-3 0  9996
2 56727  86.1957 323.7562 0002376  97.7907 262.3583 14.80219679 55769
IRIDIUM 174             
1 56728U 23068U   24150.96734697  .00002044  00000+0  26560-3 0  9991
2 56728  86.1963 324.1179 0001975  88.3406 271.8041 14.80215705 55681
IRIDIUM 178             
1 56729U 23068V   24151.50275880  .00000736  00000+0  93413-4 0  9995
2 56729  86.5775 340.4906 0002124  78.9825 281.1635 14.80205228 55764
IRIDIUM 179             
1 56730U 23068W   24150.82117553  .00001862  00000+0  24135-3 0  9998
2 56730  86.6788 344.6844 0002264  73.0448 287.1021 14.80270817 55660
